GSAT0101 (GALILEO-PFM)  
1 37846U 11060A   25058.30101452 -.00000081  00000+0  00000+0 0  9990
2 37846  57.1167 354.6317 0004396 336.7444  23.2369  1.70475564 83026
GSAT0102 (GALILEO-FM2)  
1 37847U 11060B   25059.11047795 -.00000082  00000+0  00000+0 0  9991
2 37847  57.1127 354.6102 0005451 335.3568 206.6972  1.70475719 83041
GSAT0103 (GALILEO-FM3)  
1 38857U 12055A   25053.64806726  .00000006  00000+0  00000+0 0  9992
2 38857  55.5257 114.7188 0005080 272.5081  87.5022  1.70473490 76833
GSAT0201 (GALILEO 5)    
1 40128U 14050A   25059.64698628 -.00000013  00000+0  00000+0 0  9998
2 40128  49.3877 292.7209 1621143 161.1013 205.7121  1.85519637 69533
GSAT0202 (GALILEO 6)    
1 40129U 14050B   25056.13139785  .00000005  00000+0  00000+0 0  9994
2 40129  49.4074 291.9438 1620470 161.7496 204.8491  1.85520432 71631
GSAT0203 (GALILEO 7)    
1 40544U 15017A   25055.14687909 -.00000080  00000+0  00000+0 0  9999
2 40544  56.9063 354.6168 0005253 287.0157  72.9261  1.70475541 61059
GSAT0204 (GALILEO 8)    
1 40545U 15017B   25060.09438088 -.00000084  00000+0  00000+0 0  9996
2 40545  56.9125 354.4989 0004208 281.8613  78.0964  1.70475316 24186
GSAT0205 (GALILEO 9)    
1 40889U 15045A   25057.51650992  .00000066  00000+0  00000+0 0  9990
2 40889  55.1114 234.7412 0006213  47.9432 312.0913  1.70473560 58906
GSAT0206 (GALILEO 10)   
1 40890U 15045B   25058.91027680  .00000056  00000+0  00000+0 0  9998
2 40890  55.1099 234.6979 0003994  50.5705 309.4354  1.70473522 58955
GSAT0209 (GALILEO 12)   
1 41174U 15079A   25054.38644581  .00000009  00000+0  00000+0 0  9991
2 41174  55.5453 114.4099 0004110 314.0884  45.9493  1.70474700 56610
GSAT0208 (GALILEO 11)   
1 41175U 15079B   25060.47222720  .00000029  00000+0  00000+0 0  9998
2 41175  55.5466 114.2396 0003844 311.0044  49.0554  1.70474496 57134
GSAT0211 (GALILEO 14)   
1 41549U 16030A   25052.97023279  .00000080  00000+0  00000+0 0  9992
2 41549  55.2610 234.9004 0003706  25.7694 334.2499  1.70473716 54486
GSAT0210 (GALILEO 13)   
1 41550U 16030B   25058.50724811  .00000059  00000+0  00000+0 0  9995
2 41550  55.2584 234.7461 0001097 164.7094 195.2679  1.70473803 54574
GSAT0207 (GALILEO 15)   
1 41859U 16069A   25058.78601056  .00000029  00000+0  00000+0 0  9991
2 41859  55.2144 114.2277 0004913 298.1375  61.9061  1.70474543 51314
GSAT0212 (GALILEO 16)   
1 41860U 16069B   25059.22658973  .00000030  00000+0  00000+0 0  9995
2 41860  55.2123 114.2113 0003131 323.0873  36.9851  1.70474740 51570
GSAT0213 (GALILEO 17)   
1 41861U 16069C   25059.00815522  .00000029  00000+0  00000+0 0  9995
2 41861  55.2145 114.2246 0005083 281.0026  79.0339  1.70475012 51430
GSAT0214 (GALILEO 18)   
1 41862U 16069D   25057.98049848  .00000026  00000+0  00000+0 0  9998
2 41862  55.2130 114.2462 0004399 281.0682  78.9730  1.70474903 51545
GSAT0215 (GALILEO 19)   
1 43055U 17079A   25059.05713702  .00000056  00000+0  00000+0 0  9996
2 43055  55.2376 234.5510 0000709  39.2891 320.6855  1.70474294 44909
GSAT0216 (GALILEO 20)   
1 43056U 17079B   25059.93520908  .00000051  00000+0  00000+0 0  9993
2 43056  55.2370 234.5267 0001512 324.7651  35.1890  1.70474402 44933
GSAT0217 (GALILEO 21)   
1 43057U 17079C   25058.39605985  .00000060  00000+0  00000+0 0  9992
2 43057  55.2350 234.5674 0002066 359.8326   0.1416  1.70474303 44898
GSAT0218 (GALILEO 22)   
1 43058U 17079D   25059.78925065  .00000052  00000+0  00000+0 0  9992
2 43058  55.2347 234.5265 0001729 306.3819  53.5670  1.70474322 44941
GSAT0221 (GALILEO 25)   
1 43564U 18060A   25059.10423980 -.00000082  00000+0  00000+0 0  9994
2 43564  57.2867 354.5742 0005667 302.2626  57.6852  1.70475287 41081
GSAT0222 (GALILEO 26)   
1 43565U 18060B   25059.32313957 -.00000082  00000+0  00000+0 0  9991
2 43565  57.2902 354.5708 0004208 282.3447  77.6114  1.70474977 41137
GSAT0219 (GALILEO 23)   
1 43566U 18060C   25060.13123374 -.00000084  00000+0  00000+0 0  9997
2 43566  57.2893 354.5507 0005051 310.5119  49.4489  1.70475233 41128
GSAT0220 (GALILEO 24)   
1 43567U 18060D   25059.17882163 -.00000082  00000+0  00000+0 0  9996
2 43567  57.2893 354.5769 0005597 300.7131  59.2347  1.70475118 41099
GSAT0223 (GALILEO 27)   
1 49809U 21116A   25059.91004477 -.00000083  00000+0  00000+0 0  9994
2 49809  57.2796 354.4501 0002538 275.1664 264.1297  1.70475143 20116
GSAT0224 (GALILEO 28)   
1 49810U 21116B   25057.91332176 -.00000080  00000+0  00000+0 0  9991
2 49810  57.2805 354.5024 0002005 291.9057 214.5004  1.70475239 20099
GSAT0225 (GALILEO 29)   
1 59598U 24079A   25059.46422389  .00000029  00000+0  00000+0 0  9996
2 59598  54.8316 114.3331 0002968 232.8530 137.0148  1.70475009  5247
GSAT0227 (GALILEO 30)   
1 59600U 24079C   25060.21821183  .00000028  00000+0  00000+0 0  9999
2 59600  54.8275 114.3117 0000519 181.4581 178.6349  1.70474840  5305
GSAT0232 (GALILEO 32)   
1 61182U 24167A   25060.23407630  .00000050  00000+0  00000+0 0  9999
2 61182  55.3457 234.2872 0002305 176.4195  28.6497  1.70473684  2817
GSAT0226 (GALILEO 31)   
1 61183U 24167B   25058.55785933  .00000059  00000+0  00000+0 0  9996
2 61183  55.3452 234.3391 0002072 114.9870 253.9004  1.70473879  2765
